NORAD_CAT_ID,OBJECT_NAME,OBJECT_TYPE,EPOCH,MEAN_MOTION,ECCENTRICITY,INCLINATION,RA_OF_ASC_NODE,ARG_OF_PERICENTER,MEAN_ANOMALY,BSTAR,MEAN_MOTION_DOT,MEAN_MOTION_DDOT,TLE_LINE0,TLE_LINE1,TLE_LINE2,SEMIMAJOR_AXIS,PERIOD,APOGEE,PERIGEE,DECAYED
51880.0,STARLINK-3566,PAYLOAD,2024-02-08 18:19:23,15.08856439,0.0001683,53.2169,180.2835,107.8482,252.2694,0.00011358,1.521e-05,0.0,0 STARLINK-3566,1 51880U 22022AE  24039.76346141  .00001521  00000-0  11358-3 0  9990,2 51880  53.2169 180.2835 0001683 107.8482 252.2694 15.08856439108395,6917.83,95.437,540.859,538.531,0.0
51880.0,STARLINK-3566,PAYLOAD,2024-02-09 13:24:01,15.08837944,0.0001611,53.2188,176.7146,100.9717,259.1457,0.0001232,1.673e-05,0.0,0 STARLINK-3566,1 51880U 22022AE  24040.55835492  .00001673  00000-0  12320-3 0  9999,2 51880  53.2188 176.7146 0001611 100.9717 259.1457 15.08837944108514,6917.887,95.438,540.866,538.637,0.0
51880.0,STARLINK-3566,PAYLOAD,2024-02-09 18:10:10,15.08850272,0.0001395,53.217,175.8224,100.8604,259.2545,0.00022068,3.227e-05,0.0,0 STARLINK-3566,1 51880U 22022AE  24040.75706504  .00003227  00000-0  22068-3 0  9999,2 51880  53.2170 175.8224 0001395 100.8604 259.2545 15.08850272108546,6917.849,95.437,540.679,538.749,0.0
51880.0,STARLINK-3566,PAYLOAD,2024-02-10 08:28:39,15.08834079,0.0001466,53.2169,173.1451,102.4435,257.6721,-0.00019572,-3.401e-05,0.0,0 STARLINK-3566,1 51880U 22022AE  24041.35323651 -.00003401  00000-0 -19572-3 0  9996,2 51880  53.2169 173.1451 0001466 102.4435 257.6721 15.08834079108631,6917.898,95.438,540.778,538.749,0.0
51880.0,STARLINK-3566,PAYLOAD,2024-02-10 13:14:49,15.08837282,0.0001869,53.2184,172.2526,108.924,251.1954,-8.1546e-05,-1.586e-05,0.0,0 STARLINK-3566,1 51880U 22022AE  24041.55195704 -.00001586  00000-0 -81546-4 0  9997,2 51880  53.2184 172.2526 0001869 108.9240 251.1954 15.08837282108662,6917.889,95.438,541.047,538.461,0.0
51880.0,STARLINK-3566,PAYLOAD,2024-02-10 18:00:58,15.08845607,0.0001308,53.2169,171.3606,107.5556,252.558,-2.6906e-05,-7.16e-06,0.0,0 STARLINK-3566,1 51880U 22022AE  24041.75067500 -.00000716  00000-0 -26906-4 0  9994,2 51880  53.2169 171.3606 0001308 107.5556 252.5580 15.08845607108690,6917.863,95.437,540.633,538.823,0.0
51880.0,STARLINK-3566,PAYLOAD,2024-02-11 14:40:58,15.08852747,0.0001841,53.2163,167.5026,68.5334,291.5854,0.00020854,3.034e-05,0.0,0 STARLINK-3566,1 51880U 22022AE  24042.61179287  .00003034  00000-0  20854-3 0  9995,2 51880  53.2163 167.5026 0001841  68.5334 291.5854 15.08852747108824,6917.841,95.437,540.98,538.433,0.0
51880.0,STARLINK-3566,PAYLOAD,2024-02-12 11:20:59,15.08848679,0.0001232,53.2166,163.6287,98.7454,261.3678,0.00018111,2.596e-05,0.0,0 STARLINK-3566,1 51880U 22022AE  24043.47291033  .00002596  00000-0  18111-3 0  9999,2 51880  53.2166 163.6287 0001232  98.7454 261.3678 15.08848679108957,6917.854,95.437,540.571,538.867,0.0
51880.0,STARLINK-3566,PAYLOAD,2024-02-12 12:56:22,15.08849459,0.0001236,53.2167,163.3315,97.3618,262.7514,0.00018839,2.712e-05,0.0,0 STARLINK-3566,1 51880U 22022AE  24043.53914983  .00002712  00000-0  18839-3 0  9999,2 51880  53.2167 163.3315 0001236  97.3618 262.7514 15.08849459108960,6917.851,95.437,540.572,538.861,0.0
51880.0,STARLINK-3566,PAYLOAD,2024-02-13 11:11:47,15.08837223,0.0001331,53.2182,159.1735,86.8136,273.3009,-0.00015292,-2.721e-05,0.0,0 STARLINK-3566,1 51880U 22022AE  24044.46651668 -.00002721  00000-0 -15292-3 0  9992,2 51880  53.2182 159.1735 0001331  86.8136 273.3009 15.08837223109100,6917.889,95.438,540.675,538.833,0.0
51880.0,STARLINK-3566,PAYLOAD,2024-02-13 14:22:33,15.08847442,0.0001644,53.2186,158.5786,102.0905,258.0271,-0.00014053,-2.524e-05,0.0,0 STARLINK-3566,1 51880U 22022AE  24044.59899583 -.00002524  00000-0 -14053-3 0  9991,2 51880  53.2186 158.5786 0001644 102.0905 258.0271 15.08847442109122,6917.858,95.437,540.86,538.585,0.0
51880.0,STARLINK-3566,PAYLOAD,2024-02-14 14:13:19,15.08854489,0.000121,53.2166,154.1136,77.1846,282.9281,0.00016215,2.295e-05,0.0,0 STARLINK-3566,1 51880U 22022AE  24045.59258285  .00002295  00000-0  16215-3 0  9995,2 51880  53.2166 154.1136 0001210  77.1846 282.9281 15.08854489109278,6917.836,95.437,540.538,538.864,0.0
51880.0,STARLINK-3566,PAYLOAD,2024-02-15 10:53:17,15.08888053,0.0001401,53.2173,150.25,101.1278,258.9872,0.00050551,7.777e-05,0.0,0 STARLINK-3566,1 51880U 22022AE  24046.45367433  .00007777  00000-0  50551-3 0  9998,2 51880  53.2173 150.2500 0001401 101.1278 258.9872 15.08888053109405,6917.734,95.435,540.568,538.629,0.0
51880.0,STARLINK-3566,PAYLOAD,2024-02-15 12:28:40,15.08892401,0.0001308,53.217,149.9509,95.8974,264.2167,0.00053067,8.18e-05,0.0,0 STARLINK-3566,1 51880U 22022AE  24046.51990966  .00008180  00000-0  53067-3 0  9992,2 51880  53.2170 149.9509 0001308  95.8974 264.2167 15.08892401109414,6917.72,95.434,540.49,538.68,0.0
51880.0,STARLINK-3566,PAYLOAD,2024-02-15 15:39:25,15.08897752,0.0001327,53.2176,149.3574,93.4758,266.6386,0.00056945,8.801e-05,0.0,0 STARLINK-3566,1 51880U 22022AE  24046.65238220  .00008801  00000-0  56945-3 0  9993,2 51880  53.2176 149.3574 0001327  93.4758 266.6386 15.08897752109436,6917.704,95.434,540.487,538.651,0.0
51880.0,STARLINK-3566,PAYLOAD,2024-02-15 23:36:26,15.08830612,0.0002518,53.2177,147.8714,89.174,270.9541,-3.2342e-05,-8.03e-06,0.0,0 STARLINK-3566,1 51880U 22022AE  24046.98363950 -.00000803  00000-0 -32342-4 0  9990,2 51880  53.2177 147.8714 0002518  89.1740 270.9541 15.08830612109480,6917.909,95.438,541.516,538.032,0.0
51880.0,STARLINK-3566,PAYLOAD,2024-02-16 13:54:54,15.0883484,0.0001339,53.2169,145.1932,87.7001,272.4145,-0.00013094,-2.371e-05,0.0,0 STARLINK-3566,1 51880U 22022AE  24047.57979857 -.00002371  00000-0 -13094-3 0  9999,2 51880  53.2169 145.1932 0001339  87.7001 272.4145 15.08834840109572,6917.896,95.438,540.687,538.835,0.0
51880.0,STARLINK-3566,PAYLOAD,2024-02-16 17:05:40,15.08837357,0.0001364,53.2169,144.5995,91.2989,268.8159,-0.00014229,-2.552e-05,0.0,0 STARLINK-3566,1 51880U 22022AE  24047.71227737 -.00002552  00000-0 -14229-3 0  9990,2 51880  53.2169 144.5995 0001364  91.2989 268.8159 15.08837357109599,6917.888,95.438,540.697,538.81,0.0
51880.0,STARLINK-3566,PAYLOAD,2024-02-17 10:34:55,15.08852036,0.0001435,53.2176,141.3282,89.235,270.8807,-0.00045527,-7.529e-05,0.0,0 STARLINK-3566,1 51880U 22022AE  24048.44092206 -.00007529  00000-0 -45527-3 0  9996,2 51880  53.2176 141.3282 0001435  89.2350 270.8807 15.08852036109706,6917.844,95.437,540.701,538.716,0.0
51880.0,STARLINK-3566,PAYLOAD,2024-02-17 13:45:41,15.08852623,0.0001578,53.217,140.7347,83.8558,276.2614,-0.00036893,-6.157e-05,0.0,0 STARLINK-3566,1 51880U 22022AE  24048.57339939 -.00006157  00000-0 -36893-3 0  9999,2 51880  53.2170 140.7347 0001578  83.8558 276.2614 15.08852623109723,6917.842,95.437,540.798,538.615,0.0
51880.0,STARLINK-3566,PAYLOAD,2024-02-17 23:17:59,15.08858265,0.0001721,53.2172,138.95,84.9582,275.1607,-0.0003521,-5.89e-05,0.0,0 STARLINK-3566,1 51880U 22022AE  24048.97083174 -.00005890  00000-0 -35210-3 0  9995,2 51880  53.2172 138.9500 0001721  84.9582 275.1607 15.08858265109788,6917.825,95.436,540.88,538.499,0.0
51880.0,STARLINK-3566,PAYLOAD,2024-02-18 12:01:06,15.088358,0.0001347,53.2164,136.5702,86.9325,273.1821,0.00044904,6.865e-05,0.0,0 STARLINK-3566,1 51880U 22022AE  24049.50076536  .00006865  00000-0  44904-3 0  9990,2 51880  53.2164 136.5702 0001347  86.9325 273.1821 15.08835800109863,6917.893,95.438,540.69,538.826,0.0
51880.0,STARLINK-3566,PAYLOAD,2024-02-18 15:11:51,15.08851128,0.0001723,53.2181,135.9753,89.528,270.591,0.00049793,7.648e-05,0.0,0 STARLINK-3566,1 51880U 22022AE  24049.63323730  .00007648  00000-0  49793-3 0  9996,2 51880  53.2181 135.9753 0001723  89.5280 270.5910 15.08851128109881,6917.846,95.437,540.903,538.519,0.0
51880.0,STARLINK-3566,PAYLOAD,2024-02-18 23:08:48,15.088362,0.0001472,53.2185,134.4887,93.0412,267.0748,0.00021887,3.197e-05,0.0,0 STARLINK-3566,1 51880U 22022AE  24049.96444453  .00003197  00000-0  21887-3 0  9997,2 51880  53.2185 134.4887 0001472  93.0412 267.0748 15.08836200109935,6917.892,95.438,540.775,538.739,0.0
51880.0,STARLINK-3566,PAYLOAD,2024-02-19 11:51:53,15.08838826,0.0001627,53.2169,132.1102,95.5528,264.565,9.6107e-05,1.242e-05,0.0,0 STARLINK-3566,1 51880U 22022AE  24050.49436649  .00001242  00000-0  96107-4 0  9992,2 51880  53.2169 132.1102 0001627  95.5528 264.5650 15.08838826110010,6917.884,95.438,540.875,538.623,0.0
51880.0,STARLINK-3566,PAYLOAD,2024-02-19 15:02:39,15.08841282,0.0001945,53.2184,131.5135,110.7639,249.3561,0.00014427,2.009e-05,0.0,0 STARLINK-3566,1 51880U 22022AE  24050.62684528  .00002009  00000-0  14427-3 0  9994,2 51880  53.2184 131.5135 0001945 110.7639 249.3561 15.08841282110036,6917.876,95.437,541.087,538.396,0.0
51880.0,STARLINK-3566,PAYLOAD,2024-02-20 11:42:40,15.08842955,0.0001515,53.2158,127.6491,87.4763,272.6402,4.2005e-05,3.81e-06,0.0,0 STARLINK-3566,1 51880U 22022AE  24051.48796581  .00000381  00000-0  42005-4 0  9997,2 51880  53.2158 127.6491 0001515  87.4763 272.6402 15.08842955110164,6917.871,95.437,540.784,538.688,0.0
51880.0,STARLINK-3566,PAYLOAD,2024-02-21 11:33:26,15.08845951,0.0001416,53.2166,123.191,88.9388,271.1766,0.00022153,3.24e-05,0.0,0 STARLINK-3566,1 51880U 22022AE  24052.48155936  .00003240  00000-0  22153-3 0  9999,2 51880  53.2166 123.1910 0001416  88.9388 271.1766 15.08845951110312,6917.862,95.437,540.707,538.748,0.0
51880.0,STARLINK-3566,PAYLOAD,2024-02-21 21:05:45,15.08842213,0.000146,53.2147,121.4056,85.0399,275.0759,6.175e-05,6.95e-06,0.0,0 STARLINK-3566,1 51880U 22022AE  24052.87900387  .00000695  00000-0  61750-4 0  9998,2 51880  53.2147 121.4056 0001460  85.0399 275.0759 15.08842213110371,6917.874,95.437,540.749,538.729,0.0
51880.0,STARLINK-3566,PAYLOAD,2024-02-22 03:27:19,15.08834059,0.000172,53.2177,120.2196,89.2684,270.8505,0.00011072,1.474e-05,0.0,0 STARLINK-3566,1 51880U 22022AE  24053.14397056  .00001474  00000-0  11072-3 0  9999,2 51880  53.2177 120.2196 0001720  89.2684 270.8505 15.08834059110414,6917.899,95.438,540.953,538.574,0.0
